CUTE-1.7+APD II (CO-65) 
1 32785U 08021C   26115.93638928  .00006159  00000+0  39406-3 0  9994
2 32785  97.8257  96.2988 0008264 194.5101 165.5891 15.08945436977315
SEEDS II (CO-66)        
1 32791U 08021J   26115.94206132  .00021355  00000+0  71588-3 0  9992
2 32791  97.7532 111.4231 0004953 115.6257 244.5496 15.30926157979297
YUBILEINY (RS30)        
1 32953U 08025A   26115.86818078  .00000001  00000+0 -62541-4 0  9991
2 32953  82.5071  27.9797 0020640  65.9228 294.4008 12.43177709813192
KKS-1 (KISEKI)          
1 33499U 09002H   26115.83286811  .00001435  00000+0  18342-3 0  9994
2 33499  98.1190  37.4518 0009304  98.1614 262.0655 14.82983921928430
SWISSCUBE               
1 35932U 09051B   26115.69062747  .00000913  00000+0  19044-3 0  9996
2 35932  98.4066  22.6611 0007421  26.1773 333.9801 14.62374931881481
BEESAT-1                
1 35933U 09051C   26115.74149488  .00000766  00000+0  16386-3 0  9993
2 35933  98.3995  22.4572 0006159  40.8365 319.3296 14.61630477881523
ITUPSAT1                
1 35935U 09051E   26115.68660348  .00000700  00000+0  15488-3 0  9991
2 35935  98.4081  21.6484 0008497  47.9628 312.2293 14.60357466881074
XIWANG-1 (HOPE-1)       
1 36122U 09072B   26115.88049206 -.00000329  00000+0 -74428-3 0  9997
2 36122 100.3988  70.5582 0007557 358.5441   1.5648 13.16436689786121
O/OREOS (USA 219)       
1 37224U 10062C   26115.62091183  .00001855  00000+0  18170-3 0  9990
2 37224  71.9703 199.3874 0014273 174.5038 185.6292 14.93526406108791
JUGNU                   
1 37839U 11058B   26115.72520362  .00000443  00000+0  91407-4 0  9992
2 37839  19.9611 267.1515 0018471 217.0954 259.1903 14.13760293751597
SRMSAT                  
1 37841U 11058D   26115.91410207  .00000416  00000+0  82293-4 0  9995
2 37841  19.9735  15.8664 0011661 349.2043  93.3079 14.11562971750425
STRAND-1                
1 39090U 13009E   26115.76951065  .00000252  00000+0  99175-4 0  9991
2 39090  98.3915 297.2968 0009254  34.9138 325.2654 14.37130836689533
ZACUBE-1 (TSHEPISOSAT)  
1 39417U 13066B   26115.87574143  .00005869  00000+0  45820-3 0  9993
2 39417  97.8121  77.9322 0044222  67.9289 292.6622 15.00744100672881
GOMX-1                  
1 39430U 13066Q   26115.81771684  .00001373  00000+0  21358-3 0  9997
2 39430  97.6529 319.5780 0127550 245.5389 113.2470 14.69258291662221
CUBEBUG-2 (LO-74)       
1 39440U 13066AA  26115.80650799  .00003736  00000+0  35043-3 0  9991
2 39440  97.8871  64.5922 0057328 199.5050 160.3976 14.93386841669172
FUNCUBE-1 (AO-73)       
1 39444U 13066AE  26115.87476991  .00011188  00000+0  70498-3 0  9995
2 39444  97.8238  86.2682 0037565  24.4509 335.8490 15.08734881671770
